{
  "type": "FeatureCollection",
  "features": [
    {
      "type": "Feature",
      "properties": {
        "norad_id": 28051,
        "name": "IRS-P6 (RESOURCESAT-1)",
        "group": "resource",
        "lat": -28.282858437233514,
        "lon": -143.55597278034853,
        "alt_km": 761.7722023130509,
        "timestamp": "2025-12-27T03:58:43.834595+00:00",
        "meta_object_name": "IRS-P6 (RESOURCESAT-1)",
        "meta_object_id": "2003-046A",
        "meta_epoch": "2025-12-26T21:07:10.126848",
        "meta_mean_motion": 14.36080386,
        "meta_eccentricity": 0.0064993,
        "meta_inclination": 98.2159,
        "meta_ra_of_asc_node": 40.6301,
        "meta_arg_of_pericenter": 138.4979,
        "meta_mean_anomaly": 32.5612,
        "meta_ephemeris_type": 0,
        "meta_classification_type": "U",
        "meta_norad_cat_id": 28051,
        "meta_element_set_no": 999,
        "meta_rev_at_epoch": 15579,
        "meta_bstar": 3.5302e-05,
        "meta_mean_motion_dot": 6.5e-07,
        "meta_mean_motion_ddot": 0,
        "tle_line1": "1 28051U 03046A   25360.87997832  .00000065  00000+0  35302-4 0  9995",
        "tle_line2": "2 28051  98.2159  40.6301 0064993 138.4979  32.5612 14.36080386155793"
      },
      "geometry": {
        "type": "Point",
        "coordinates": [
          -143.55597278034853,
          -28.282858437233514
        ]
      }
    },
    {
      "type": "Feature",
      "properties": {
        "norad_id": 28220,
        "name": "SHIYAN-1 (SY-1)",
        "group": "resource",
        "lat": -5.076010608293067,
        "lon": -117.1489892441615,
        "alt_km": 483.3100149353231,
        "timestamp": "2025-12-27T03:58:43.834606+00:00",
        "meta_object_name": "SHIYAN-1 (SY-1)",
        "meta_object_id": "2004-012A",
        "meta_epoch": "2025-12-26T16:10:24.292128",
        "meta_mean_motion": 15.28506935,
        "meta_eccentricity": 0.0005159,
        "meta_inclination": 97.8913,
        "meta_ra_of_asc_node": 63.0359,
        "meta_arg_of_pericenter": 266.2331,
        "meta_mean_anomaly": 93.8317,
        "meta_ephemeris_type": 0,
        "meta_classification_type": "U",
        "meta_norad_cat_id": 28220,
        "meta_element_set_no": 999,
        "meta_rev_at_epoch": 18469,
        "meta_bstar": 0.00052959,
        "meta_mean_motion_dot": 0.00014628,
        "meta_mean_motion_ddot": 0,
        "tle_line1": "1 28220U 04012A   25360.67389227  .00014628  00000+0  52959-3 0  9994",
        "tle_line2": "2 28220  97.8913  63.0359 0005159 266.2331  93.8317 15.28506935184695"
      },
      "geometry": {
        "type": "Point",
        "coordinates": [
          -117.1489892441615,
          -5.076010608293067
        ]
      }
    },
    {
      "type": "Feature",
      "properties": {
        "norad_id": 28376,
        "name": "AURA",
        "group": "resource",
        "lat": -34.318370397394716,
        "lon": -42.805614000847704,
        "alt_km": 696.7930395113099,
        "timestamp": "2025-12-27T03:58:43.834616+00:00",
        "meta_object_name": "AURA",
        "meta_object_id": "2004-026A",
        "meta_epoch": "2025-12-26T18:16:31.024416",
        "meta_mean_motion": 14.60978456,
        "meta_eccentricity": 0.000145,
        "meta_inclination": 98.3204,
        "meta_ra_of_asc_node": 311.0548,
        "meta_arg_of_pericenter": 90.1858,
        "meta_mean_anomaly": 269.9508,
        "meta_ephemeris_type": 0,
        "meta_classification_type": "U",
        "meta_norad_cat_id": 28376,
        "meta_element_set_no": 999,
        "meta_rev_at_epoch": 14103,
        "meta_bstar": 0.00024738,
        "meta_mean_motion_dot": 1.165e-05,
        "meta_mean_motion_ddot": 0,
        "tle_line1": "1 28376U 04026A   25360.76147019  .00001165  00000+0  24738-3 0  9998",
        "tle_line2": "2 28376  98.3204 311.0548 0001450  90.1858 269.9508 14.60978456141035"
      },
      "geometry": {
        "type": "Point",
        "coordinates": [
          -42.805614000847704,
          -34.318370397394716
        ]
      }
    },
    {
      "type": "Feature",
      "properties": {
        "norad_id": 28649,
        "name": "IRS-P5 (CARTOSAT-1)",
        "group": "resource",
        "lat": -81.23100367467656,
        "lon": 147.66455308776005,
        "alt_km": 604.2080201498547,
        "timestamp": "2025-12-27T03:58:43.834626+00:00",
        "meta_object_name": "IRS-P5 (CARTOSAT-1)",
        "meta_object_id": "2005-017A",
        "meta_epoch": "2025-12-26T20:20:45.652704",
        "meta_mean_motion": 14.90451268,
        "meta_eccentricity": 4.66e-05,
        "meta_inclination": 97.5483,
        "meta_ra_of_asc_node": 26.6348,
        "meta_arg_of_pericenter": 75.7075,
        "meta_mean_anomaly": 284.4196,
        "meta_ephemeris_type": 0,
        "meta_classification_type": "U",
        "meta_norad_cat_id": 28649,
        "meta_element_set_no": 999,
        "meta_rev_at_epoch": 11814,
        "meta_bstar": 0.00017521,
        "meta_mean_motion_dot": 1.656e-05,
        "meta_mean_motion_ddot": 0,
        "tle_line1": "1 28649U 05017A   25360.84775061  .00001656  00000+0  17521-3 0  9992",
        "tle_line2": "2 28649  97.5483  26.6348 0000466  75.7075 284.4196 14.90451268118142"
      },
      "geometry": {
        "type": "Point",
        "coordinates": [
          147.66455308776005,
          -81.23100367467656
        ]
      }
    },
    {
      "type": "Feature",
      "properties": {
        "norad_id": 28893,
        "name": "SINAH 1",
        "group": "resource",
        "lat": -32.247897365352976,
        "lon": 135.02143397486617,
        "alt_km": 693.1951269414913,
        "timestamp": "2025-12-27T03:58:43.834635+00:00",
        "meta_object_name": "SINAH 1",
        "meta_object_id": "2005-043D",
        "meta_epoch": "2025-12-26T19:55:33.657888",
        "meta_mean_motion": 14.63977211,
        "meta_eccentricity": 0.0015735,
        "meta_inclination": 98.261,
        "meta_ra_of_asc_node": 129.4259,
        "meta_arg_of_pericenter": 95.956,
        "meta_mean_anomaly": 264.3436,
        "meta_ephemeris_type": 0,
        "meta_classification_type": "U",
        "meta_norad_cat_id": 28893,
        "meta_element_set_no": 999,
        "meta_rev_at_epoch": 7530,
        "meta_bstar": 0.00010578,
        "meta_mean_motion_dot": 5.06e-06,
        "meta_mean_motion_ddot": 0,
        "tle_line1": "1 28893U 05043D   25360.83025067  .00000506  00000+0  10578-3 0  9993",
        "tle_line2": "2 28893  98.2610 129.4259 0015735  95.9560 264.3436 14.63977211 75309"
      },
      "geometry": {
        "type": "Point",
        "coordinates": [
          135.02143397486617,
          -32.247897365352976
        ]
      }
    },
    {
      "type": "Feature",
      "properties": {
        "norad_id": 29079,
        "name": "EROS B",
        "group": "resource",
        "lat": 73.77704485178508,
        "lon": -35.208038096358216,
        "alt_km": 345.686792053054,
        "timestamp": "2025-12-27T03:58:43.834645+00:00",
        "meta_object_name": "EROS B",
        "meta_object_id": "2006-014A",
        "meta_epoch": "2025-12-26T21:25:47.099136",
        "meta_mean_motion": 15.73084638,
        "meta_eccentricity": 0.0004877,
        "meta_inclination": 97.3448,
        "meta_ra_of_asc_node": 118.1876,
        "meta_arg_of_pericenter": 311.9564,
        "meta_mean_anomaly": 48.1283,
        "meta_ephemeris_type": 0,
        "meta_classification_type": "U",
        "meta_norad_cat_id": 29079,
        "meta_element_set_no": 999,
        "meta_rev_at_epoch": 9302,
        "meta_bstar": 0.0015917,
        "meta_mean_motion_dot": 0.00222693,
        "meta_mean_motion_ddot": 0,
        "tle_line1": "1 29079U 06014A   25360.89290624  .00222693  00000+0  15917-2 0  9992",
        "tle_line2": "2 29079  97.3448 118.1876 0004877 311.9564  48.1283 15.73084638 93026"
      },
      "geometry": {
        "type": "Point",
        "coordinates": [
          -35.208038096358216,
          73.77704485178508
        ]
      }
    },
    {
      "type": "Feature",
      "properties": {
        "norad_id": 29228,
        "name": "RESURS-DK 1",
        "group": "resource",
        "lat": -67.04524343936879,
        "lon": -55.78495067984903,
        "alt_km": 531.3047272746053,
        "timestamp": "2025-12-27T03:58:43.834655+00:00",
        "meta_object_name": "RESURS-DK 1",
        "meta_object_id": "2006-021A",
        "meta_epoch": "2025-12-26T14:08:19.212000",
        "meta_mean_motion": 15.12237827,
        "meta_eccentricity": 0.0006959,
        "meta_inclination": 69.9336,
        "meta_ra_of_asc_node": 66.0447,
        "meta_arg_of_pericenter": 246.6774,
        "meta_mean_anomaly": 113.3659,
        "meta_ephemeris_type": 0,
        "meta_classification_type": "U",
        "meta_norad_cat_id": 29228,
        "meta_element_set_no": 999,
        "meta_rev_at_epoch": 7647,
        "meta_bstar": 0.00017973,
        "meta_mean_motion_dot": 3.008e-05,
        "meta_mean_motion_ddot": 0,
        "tle_line1": "1 29228U 06021A   25360.58911125  .00003008  00000+0  17973-3 0  9990",
        "tle_line2": "2 29228  69.9336  66.0447 0006959 246.6774 113.3659 15.12237827 76473"
      },
      "geometry": {
        "type": "Point",
        "coordinates": [
          -55.78495067984903,
          -67.04524343936879
        ]
      }
    }
  ]
}